ONEWEB-0018             
1 45434U 20020L   25008.60131093  .00000294  00000+0  79503-3 0  9993
2 45434  87.8912 125.6126 0001553 109.1489 250.9807 13.11418884233879
ONEWEB-0083             
1 45435U 20020M   25008.59113096 -.00000144  00000+0 -44241-3 0  9992
2 45435  87.8915 125.5977 0001654 106.3526 253.7784 13.11419195233915
ONEWEB-0095             
1 45436U 20020N   25008.58277997 -.00000458  00000+0 -13281-2 0  9990
2 45436  87.8912 125.6291 0002289  94.1564 265.9826 13.11415854233914
ONEWEB-0092             
1 45437U 20020P   25008.55468202  .00000194  00000+0  51287-3 0  9993
2 45437  87.8913 125.6214 0001780  98.5043 261.6287 13.11414049234028
ONEWEB-0085             
1 45438U 20020Q   25008.58434305 -.00000429  00000+0 -12449-2 0  9993
2 45438  87.8914 125.6237 0001529 107.0389 253.0907 13.11418941233911
ONEWEB-0096             
1 45439U 20020R   25008.59281951 -.00000071  00000+0 -23472-3 0  9994
2 45439  87.8914 125.5900 0001337 107.6030 252.5244 13.11419994233900
ONEWEB-0037             
1 45440U 20020S   25008.57416731 -.00000522  00000+0 -15079-2 0  9994
2 45440  87.8905 125.5653 0001651 102.2313 257.9000 13.11414911233937
ONEWEB-0042             
1 45441U 20020T   25008.58250256 -.00000415  00000+0 -12054-2 0  9995
2 45441  87.8913 125.6041 0001497 105.7609 254.3684 13.11416346233903
